COMMENT,ORIGINATOR,NORAD_CAT_ID,OBJECT_NAME,OBJECT_TYPE,CLASSIFICATION_TYPE,INTLDES,EPOCH,EPOCH_MICROSECONDS,MEAN_MOTION,ECCENTRICITY,INCLINATION,RA_OF_ASC_NODE,ARG_OF_PERICENTER,MEAN_ANOMALY,EPHEMERIS_TYPE,ELEMENT_SET_NO,REV_AT_EPOCH,BSTAR,MEAN_MOTION_DOT,MEAN_MOTION_DDOT,FILE,TLE_LINE0,TLE_LINE1,TLE_LINE2,OBJECT_ID,OBJECT_NUMBER,SEMIMAJOR_AXIS,PERIOD,APOGEE,PERIGEE,DECAYED,date
GENERATED VIA SPACETRACK.ORG API,18 SPCS,52183,SPACEBEE-133,PAYLOAD,U,22033AC,2023/2/13 4:42,392960,15.32683981,0.0007532,97.3597,127.4788,248.2055,111.8386,0,999,4838,0.0018793,0.00059683,0,3788722,0 SPACEBEE-133,1 52183U 22033AC  23044.19591890  .00059683  00000-0  18793-2 0  9995,2 52183  97.3597 127.4788 0007532 248.2055 111.8386 15.32683981 48388,2022-033AC,52183,6845.945,93.953,472.967,462.654,1,2023/4/3
GENERATED VIA SPACETRACK.ORG API,18 SPCS,52183,SPACEBEE-133,PAYLOAD,U,22033AC,2023/2/13 4:42,392960,15.32683981,0.0007532,97.3597,127.4788,248.2055,111.8386,0,999,4839,0.0018793,0.00059683,0,3789366,0 SPACEBEE-133,1 52183U 22033AC  23044.19591890  .00059683  00000-0  18793-2 0  9995,2 52183  97.3597 127.4788 0007532 248.2055 111.8386 15.32683981 48399,2022-033AC,52183,6845.945,93.953,472.967,462.654,1,2023/4/4
GENERATED VIA SPACETRACK.ORG API,18 SPCS,52183,SPACEBEE-133,PAYLOAD,U,22033AC,2023/2/14 12:02,521664,15.32830616,0.000742,97.36,128.7783,243.75,116.298,0,999,4858,0.0020323,0.00064888,0,3791240,0 SPACEBEE-133,1 52183U 22033AC  23045.50160326  .00064888  00000-0  20323-2 0  9992,2 52183  97.3600 128.7783 0007420 243.7500 116.2980 15.32830616 48583,2022-033AC,52183,6845.509,93.944,472.453,462.294,1,2023/4/5
GENERATED VIA SPACETRACK.ORG API,18 SPCS,52183,SPACEBEE-133,PAYLOAD,U,22033AC,2023/2/14 12:02,521664,15.32830616,0.000742,97.36,128.7783,243.75,116.298,0,999,4859,0.0020323,0.00064888,0,3791349,0 SPACEBEE-133,1 52183U 22033AC  23045.50160326  .00064888  00000-0  20323-2 0  9992,2 52183  97.3600 128.7783 0007420 243.7500 116.2980 15.32830616 48594,2022-033AC,52183,6845.509,93.944,472.453,462.294,1,2023/4/6
GENERATED VIA SPACETRACK.ORG API,18 SPCS,52183,SPACEBEE-133,PAYLOAD,U,22033AC,2023/2/14 16:44,296384,15.32851682,0.0007405,97.36,128.9732,243.2618,116.7867,0,999,4862,0.001911,0.00061019,0,3792084,0 SPACEBEE-133,1 52183U 22033AC  23045.69744556  .00061019  00000-0  19110-2 0  9990,2 52183  97.3600 128.9732 0007405 243.2618 116.7867 15.32851682 48627,2022-033AC,52183,6845.446,93.943,472.38,462.242,1,2023/4/7
GENERATED VIA SPACETRACK.ORG API,18 SPCS,52183,SPACEBEE-133,PAYLOAD,U,22033AC,2023/2/15 11:32,688352,15.32942926,0.0007429,97.3599,129.7527,240.0887,119.9618,0,999,4873,0.0018866,0.00060407,0,3793551,0 SPACEBEE-133,1 52183U 22033AC  23046.48078343  .00060407  00000-0  18866-2 0  9999,2 52183  97.3599 129.7527 0007429 240.0887 119.9618 15.32942926 48737,2022-033AC,52183,6845.174,93.937,472.125,461.954,1,2023/4/8
GENERATED VIA SPACETRACK.ORG API,18 SPCS,52183,SPACEBEE-133,PAYLOAD,U,22033AC,2023/2/15 11:32,688352,15.32942926,0.0007429,97.3599,129.7527,240.0887,119.9618,0,999,4874,0.0018866,0.00060407,0,3793706,0 SPACEBEE-133,1 52183U 22033AC  23046.48078343  .00060407  00000-0  18866-2 0  9999,2 52183  97.3599 129.7527 0007429 240.0887 119.9618 15.32942926 48748,2022-033AC,52183,6845.174,93.937,472.125,461.954,1,2023/4/9
GENERATED VIA SPACETRACK.ORG API,18 SPCS,52183,SPACEBEE-133,PAYLOAD,U,22033AC,2023/2/15 19:22,522048,15.329946,0.0007492,97.3595,130.0772,239.357,120.6934,0,999,4879,0.0022225,0.00071395,0,3795153,0 SPACEBEE-133,1 52183U 22033AC  23046.80715882  .00071395  00000-0  22225-2 0  9993,2 52183  97.3595 130.0772 0007492 239.3570 120.6934 15.32994600 48792,2022-033AC,52183,6845.021,93.934,472.014,461.757,1,2023/4/10
GENERATED VIA SPACETRACK.ORG API,18 SPCS,52183,SPACEBEE-133,PAYLOAD,U,22033AC,2023/2/16 4:46,907872,15.33055044,0.0007556,97.3596,130.4668,237.8027,122.2483,0,999,4884,0.0021239,0.00068327,0,3796516,0 SPACEBEE-133,1 52183U 22033AC  23047.19879523  .00068327  00000-0  21239-2 0  9994,2 52183  97.3596 130.4668 0007556 237.8027 122.2483 15.33055044 48846,2022-033AC,52183,6844.841,93.93,471.878,461.534,1,2023/4/11
GENERATED VIA SPACETRACK.ORG API,18 SPCS,52183,SPACEBEE-133,PAYLOAD,U,22033AC,2023/2/16 11:02,488576,15.33088084,0.0007526,97.3596,130.7271,237.1496,122.9022,0,999,4889,0.0021542,0.00069384,0,3798293,0 SPACEBEE-133,1 52183U 22033AC  23047.45987834  .00069384  00000-0  21542-2 0  9999,2 52183  97.3596 130.7271 0007526 237.1496 122.9022 15.33088084 48890,2022-033AC,52183,6844.742,93.928,471.759,461.456,1,2023/4/12
GENERATED VIA SPACETRACK.ORG API,18 SPCS,52183,SPACEBEE-133,PAYLOAD,U,22033AC,2023/2/17 4:16,117152,15.33183253,0.0007588,97.3598,131.4413,234.4295,125.6241,0,999,4899,0.001571,0.00050606,0,3802201,0 SPACEBEE-133,1 52183U 22033AC  23048.17782543  .00050606  00000-0  15710-2 0  9996,2 52183  97.3598 131.4413 0007588 234.4295 125.6241 15.33183253 48991,2022-033AC,52183,6844.459,93.922,471.518,461.13,1,2023/4/13
GENERATED VIA SPACETRACK.ORG API,18 SPCS,52183,SPACEBEE-133,PAYLOAD,U,22033AC,2023/2/17 4:16,117152,15.33183253,0.0007588,97.3598,131.4413,234.4295,125.6241,0,999,4900,0.001571,0.00050606,0,3802730,0 SPACEBEE-133,1 52183U 22033AC  23048.17782543  .00050606  00000-0  15710-2 0  9996,2 52183  97.3598 131.4413 0007588 234.4295 125.6241 15.33183253 49004,2022-033AC,52183,6844.459,93.922,471.518,461.13,1,2023/4/14
GENERATED VIA SPACETRACK.ORG API,18 SPCS,52183,SPACEBEE-133,PAYLOAD,U,22033AC,2023/2/17 18:21,42048,15.3324233,0.0007505,97.3597,132.0259,232.0257,128.0308,0,999,4909,0.0015407,0.00049714,0,3804075,0 SPACEBEE-133,1 52183U 22033AC  23048.76520882  .00049714  00000-0  15407-2 0  9998,2 52183  97.3597 132.0259 0007505 232.0257 128.0308 15.33242330 49091,2022-033AC,52183,6844.283,93.919,471.285,461.012,1,2023/4/15
GENERATED VIA SPACETRACK.ORG API,18 SPCS,52183,SPACEBEE-133,PAYLOAD,U,22033AC,2023/2/18 11:35,221376,15.33302005,0.0007501,97.3595,132.7407,228.8915,131.168,0,999,4919,0.0012745,0.00041142,0,3806527,0 SPACEBEE-133,1 52183U 22033AC  23049.48309284  .00041142  00000-0  12745-2 0  9998,2 52183  97.3595 132.7407 0007501 228.8915 131.1680 15.33302005 49196,2022-033AC,52183,6844.106,93.915,471.104,460.837,1,2023/4/16
GENERATED VIA SPACETRACK.ORG API,18 SPCS,52183,SPACEBEE-133,PAYLOAD,U,22033AC,2023/2/18 11:35,221376,15.33302005,0.0007501,97.3595,132.7407,228.8915,131.168,0,999,4920,0.0012745,0.00041142,0,3807124,0 SPACEBEE-133,1 52183U 22033AC  23049.48309284  .00041142  00000-0  12745-2 0  9998,2 52183  97.3595 132.7407 0007501 228.8915 131.1680 15.33302005 49208,2022-033AC,52183,6844.106,93.915,471.104,460.837,1,2023/4/17
GENERATED VIA SPACETRACK.ORG API,18 SPCS,52183,SPACEBEE-133,PAYLOAD,U,22033AC,2023/2/18 19:25,698624,15.33330314,0.0007563,97.3593,133.0655,228.1937,131.866,0,999,4925,0.00124,0.00040057,0,3811610,0 SPACEBEE-133,1 52183U 22033AC  23049.80939466  .00040057  00000-0  12400-2 0  9997,2 52183  97.3593 133.0655 0007563 228.1937 131.8660 15.33330314 49254,2022-033AC,52183,6844.021,93.913,471.063,460.71,1,2023/4/18
GENERATED VIA SPACETRACK.ORG API,18 SPCS,52183,SPACEBEE-133,PAYLOAD,U,22033AC,2023/2/19 23:37,512544,15.33426807,0.0007621,97.3591,134.2349,224.035,136.0287,0,999,4942,0.0012664,0.00041042,0,3813129,0 SPACEBEE-133,1 52183U 22033AC  23050.98403371  .00041042  00000-0  12664-2 0  9996,2 52183  97.3591 134.2349 0007621 224.0350 136.0287 15.33426807 49428,2022-033AC,52183,6843.734,93.907,470.815,460.384,1,2023/4/19
GENERATED VIA SPACETRACK.ORG API,18 SPCS,52183,SPACEBEE-133,PAYLOAD,U,22033AC,2023/2/20 4:18,679392,15.3344485,0.0007623,97.359,134.4299,223.4751,136.5891,0,999,4946,0.0013018,0.00042221,0,3815761,0 SPACEBEE-133,1 52183U 22033AC  23051.17979953  .00042221  00000-0  13018-2 0  9996,2 52183  97.3590 134.4299 0007623 223.4751 136.5891 15.33444850 49461,2022-033AC,52183,6843.681,93.906,470.763,460.329,1,2023/4/20
GENERATED VIA SPACETRACK.ORG API,18 SPCS,52183,SPACEBEE-133,PAYLOAD,U,22033AC,2023/2/21 5:22,532000,15.33536385,0.000763,97.3587,135.4696,219.7197,140.3488,0,999,4961,0.0014051,0.00045731,0,3818280,0 SPACEBEE-133,1 52183U 22033AC  23052.22384875  .00045731  00000-0  14051-2 0  9993,2 52183  97.3587 135.4696 0007630 219.7197 140.3488 15.33536385 49616,2022-033AC,52183,6843.408,93.901,470.495,460.052,1,2023/4/21
GENERATED VIA SPACETRACK.ORG API,18 SPCS,52183,SPACEBEE-133,PAYLOAD,U,22033AC,2023/2/21 5:22,532000,15.33536385,0.000763,97.3587,135.4696,219.7197,140.3488,0,999,4962,0.0014051,0.00045731,0,3819803,0 SPACEBEE-133,1 52183U 22033AC  23052.22384875  .00045731  00000-0  14051-2 0  9993,2 52183  97.3587 135.4696 0007630 219.7197 140.3488 15.33536385 49627,2022-033AC,52183,6843.408,93.901,470.495,460.052,1,2023/4/22
GENERATED VIA SPACETRACK.ORG API,18 SPCS,52183,SPACEBEE-133,PAYLOAD,U,22033AC,2023/2/21 19:27,820544,15.3359283,0.0007482,97.3589,136.0547,218.3487,141.7224,0,999,4971,0.0014345,0.00046777,0,3821329,0 SPACEBEE-133,1 52183U 22033AC  23052.81109746  .00046777  00000-0  14345-2 0  9997,2 52183  97.3589 136.0547 0007482 218.3487 141.7224 15.33592830 49713,2022-033AC,52183,6843.24,93.897,470.225,459.985,1,2023/4/23
GENERATED VIA SPACETRACK.ORG API,18 SPCS,52183,SPACEBEE-133,PAYLOAD,U,22033AC,2023/2/22 6:25,659744,15.33632036,0.0007613,97.3582,136.5095,216.5106,143.5619,0,999,4977,0.0013115,0.00042791,0,3823614,0 SPACEBEE-133,1 52183U 22033AC  23053.26783171  .00042791  00000-0  13115-2 0  9993,2 52183  97.3582 136.5095 0007613 216.5106 143.5619 15.33632036 49770,2022-033AC,52183,6843.124,93.895,470.198,459.779,1,2023/4/24
GENERATED VIA SPACETRACK.ORG API,18 SPCS,52183,SPACEBEE-133,PAYLOAD,U,22033AC,2023/2/22 6:25,659744,15.33632036,0.0007613,97.3582,136.5095,216.5106,143.5619,0,999,4978,0.0013115,0.00042791,0,3824148,0 SPACEBEE-133,1 52183U 22033AC  23053.26783171  .00042791  00000-0  13115-2 0  9993,2 52183  97.3582 136.5095 0007613 216.5106 143.5619 15.33632036 49781,2022-033AC,52183,6843.124,93.895,470.198,459.779,1,2023/4/25
